{"type": "FeatureCollection", "features": [ {"type": "Feature", "properties": {"norad_id": 44476, "name": "INTELSAT 39 (IS-39)", "group": "intelsat", "lat": -0.01525789395139628, "lon": -145.15309514681212, "alt_km": 35784.97263856073, "timestamp": "2025-12-25T03:55:55.975219+00:00", "meta": {"OBJECT_NAME": "INTELSAT 39 (IS-39)", "OBJECT_ID": "2019-049B", "EPOCH": "2025-12-24T20:44:19.375296", "MEAN_MOTION": 1.00269205, "ECCENTRICITY": 0.0001053, "INCLINATION": 0.0204, "RA_OF_ASC_NODE": 14.1834, "ARG_OF_PERICENTER": 135.0817, "MEAN_ANOMALY": 317.3822, "EPHEMERIS_TYPE": 0, "CLASSIFICATION_TYPE": "U", "NORAD_CAT_ID": 44476, "ELEMENT_SET_NO": 999, "REV_AT_EPOCH": 2338, "BSTAR": 0, "MEAN_MOTION_DOT": 0, "MEAN_MOTION_DDOT": 0}, "tle": {"line1": "1 44476U 19049B   25358.86411314  .00000000  00000+0  00000+0 0  9997", "line2": "2 44476   0.0204  14.1834 0001053 135.0817 317.3822  1.00269205 23385"}}, "geometry": {"type": "Point", "coordinates": [-145.15309514681212, -0.01525789395139628]}}, {"type": "Feature", "properties": {"norad_id": 46114, "name": "GALAXY 30 (G-30)", "group": "intelsat", "lat": 0.02024677263562859, "lon": 27.923621828401714, "alt_km": 35790.12562331508, "timestamp": "2025-12-25T03:55:55.975231+00:00", "meta": {"OBJECT_NAME": "GALAXY 30 (G-30)", "OBJECT_ID": "2020-056C", "EPOCH": "2025-12-24T14:13:04.643040", "MEAN_MOTION": 1.00271053, "ECCENTRICITY": 0.0002137, "INCLINATION": 0.0158, "RA_OF_ASC_NODE": 331.484, "ARG_OF_PERICENTER": 301.012, "MEAN_ANOMALY": 269.1362, "EPHEMERIS_TYPE": 0, "CLASSIFICATION_TYPE": "U", "NORAD_CAT_ID": 46114, "ELEMENT_SET_NO": 999, "REV_AT_EPOCH": 1954, "BSTAR": 0, "MEAN_MOTION_DOT": 5.8e-07, "MEAN_MOTION_DDOT": 0}, "tle": {"line1": "1 46114U 20056C   25358.59241485  .00000058  00000+0  00000+0 0  9991", "line2": "2 46114   0.0158 331.4840 0002137 301.0120 269.1362  1.00271053 19542"}}, "geometry": {"type": "Point", "coordinates": [27.923621828401714, 0.02024677263562859]}}, {"type": "Feature", "properties": {"norad_id": 54026, "name": "GALAXY 33 (G-33)", "group": "intelsat", "lat": 0.01380819243543281, "lon": 19.9297322062295, "alt_km": 35788.768685929266, "timestamp": "2025-12-25T03:55:55.975243+00:00", "meta": {"OBJECT_NAME": "GALAXY 33 (G-33)", "OBJECT_ID": "2022-128A", "EPOCH": "2025-12-24T04:31:51.326400", "MEAN_MOTION": 1.00272122, "ECCENTRICITY": 0.0001643, "INCLINATION": 0.0126, "RA_OF_ASC_NODE": 315.9231, "ARG_OF_PERICENTER": 309.5058, "MEAN_ANOMALY": 122.5078, "EPHEMERIS_TYPE": 0, "CLASSIFICATION_TYPE": "U", "NORAD_CAT_ID": 54026, "ELEMENT_SET_NO": 999, "REV_AT_EPOCH": 1198, "BSTAR": 0, "MEAN_MOTION_DOT": 1e-06, "MEAN_MOTION_DDOT": 0}, "tle": {"line1": "1 54026U 22128A   25358.18878850  .00000100  00000+0  00000+0 0  9999", "line2": "2 54026   0.0126 315.9231 0001643 309.5058 122.5078  1.00272122 11987"}}, "geometry": {"type": "Point", "coordinates": [19.9297322062295, 0.01380819243543281]}}, {"type": "Feature", "properties": {"norad_id": 54027, "name": "GALAXY 34 (G-34)", "group": "intelsat", "lat": 0.015921350335087143, "lon": 23.96145038048713, "alt_km": 35790.10407856223, "timestamp": "2025-12-25T03:55:55.975255+00:00", "meta": {"OBJECT_NAME": "GALAXY 34 (G-34)", "OBJECT_ID": "2022-128B", "EPOCH": "2025-12-24T13:27:04.950144", "MEAN_MOTION": 1.00269797, "ECCENTRICITY": 0.0001744, "INCLINATION": 0.0224, "RA_OF_ASC_NODE": 357.4112, "ARG_OF_PERICENTER": 268.0239, "MEAN_ANOMALY": 260.7121, "EPHEMERIS_TYPE": 0, "CLASSIFICATION_TYPE": "U", "NORAD_CAT_ID": 54027, "ELEMENT_SET_NO": 999, "REV_AT_EPOCH": 1216, "BSTAR": 0, "MEAN_MOTION_DOT": 0, "MEAN_MOTION_DDOT": 0}, "tle": {"line1": "1 54027U 22128B   25358.56047396  .00000000  00000+0  00000+0 0  9994", "line2": "2 54027   0.0224 357.4112 0001744 268.0239 260.7121  1.00269797 12167"}}, "geometry": {"type": "Point", "coordinates": [23.96145038048713, 0.015921350335087143]}}, {"type": "Feature", "properties": {"norad_id": 54243, "name": "GALAXY 31 (G-31)", "group": "intelsat", "lat": 0.00980743654783411, "lon": 31.916067616916187, "alt_km": 35788.22732195195, "timestamp": "2025-12-25T03:55:55.975267+00:00", "meta": {"OBJECT_NAME": "GALAXY 31 (G-31)", "OBJECT_ID": "2022-153A", "EPOCH": "2025-12-24T14:14:12.035040", "MEAN_MOTION": 1.00271389, "ECCENTRICITY": 0.0001524, "INCLINATION": 0.025, "RA_OF_ASC_NODE": 248.306, "ARG_OF_PERICENTER": 34.989, "MEAN_ANOMALY": 262.6161, "EPHEMERIS_TYPE": 0, "CLASSIFICATION_TYPE": "U", "NORAD_CAT_ID": 54243, "ELEMENT_SET_NO": 999, "REV_AT_EPOCH": 538, "BSTAR": 0, "MEAN_MOTION_DOT": 3.4e-07, "MEAN_MOTION_DDOT": 0}, "tle": {"line1": "1 54243U 22153A   25358.59319485  .00000034  00000+0  00000+0 0  9993", "line2": "2 54243   0.0250 248.3060 0001524  34.9890 262.6161  1.00271389  5386"}}, "geometry": {"type": "Point", "coordinates": [31.916067616916187, 0.00980743654783411]}}, {"type": "Feature", "properties": {"norad_id": 54244, "name": "GALAXY 32 (G-32)", "group": "intelsat", "lat": 0.02319741736706189, "lon": 61.9258893484499, "alt_km": 35788.139408280775, "timestamp": "2025-12-25T03:55:55.975279+00:00", "meta": {"OBJECT_NAME": "GALAXY 32 (G-32)", "OBJECT_ID": "2022-153B", "EPOCH": "2025-12-24T00:35:10.537728", "MEAN_MOTION": 1.00272312, "ECCENTRICITY": 0.00019036, "INCLINATION": 0.0096, "RA_OF_ASC_NODE": 16.5696, "ARG_OF_PERICENTER": 300.0291, "MEAN_ANOMALY": 53.9983, "EPHEMERIS_TYPE": 0, "CLASSIFICATION_TYPE": "U", "NORAD_CAT_ID": 54244, "ELEMENT_SET_NO": 999, "REV_AT_EPOCH": 1138, "BSTAR": 0, "MEAN_MOTION_DOT": -1.53e-06, "MEAN_MOTION_DDOT": 0}, "tle": {"line1": "1 54244U 22153B   25358.02442752 -.00000153  00000+0  00000+0 0  9999", "line2": "2 54244   0.0096  16.5696 0001903 300.0291  53.9983  1.00272312 11385"}}, "geometry": {"type": "Point", "coordinates": [61.9258893484499, 0.02319741736706189]}}, {"type": "Feature", "properties": {"norad_id": 54741, "name": "GALAXY 35 (G-35)", "group": "intelsat", "lat": 0.016064868622938027, "lon": 59.82781788342672, "alt_km": 35794.148616396895, "timestamp": "2025-12-25T03:55:55.975291+00:00", "meta": {"OBJECT_NAME": "GALAXY 35 (G-35)", "OBJECT_ID": "2022-170A", "EPOCH": "2025-12-24T14:22:11.269920", "MEAN_MOTION": 1.002713, "ECCENTRICITY": 0.0002303, "INCLINATION": 0.0298, "RA_OF_ASC_NODE": 246.103, "ARG_OF_PERICENTER": 29.5431, "MEAN_ANOMALY": 300.1805, "EPHEMERIS_TYPE": 0, "CLASSIFICATION_TYPE": "U", "NORAD_CAT_ID": 54741, "ELEMENT_SET_NO": 999, "REV_AT_EPOCH": 1114, "BSTAR": 0, "MEAN_MOTION_DOT": -1.41e-06, "MEAN_MOTION_DDOT": 0}, "tle": {"line1": "1 54741U 22170A   25358.59874155 -.00000141  00000+0  00000+0 0  9995", "line2": "2 54741   0.0298 246.1030 0002303  29.5431 300.1805  1.00271300 11148"}}, "geometry": {"type": "Point", "coordinates": [59.82781788342672, 0.016064868622938027]}}, {"type": "Feature", "properties": {"norad_id": 54742, "name": "GALAXY 36 (G-36)", "group": "intelsat", "lat": 0.00909145951380474, "lon": 63.9156970666316, "alt_km": 35785.704078097544, "timestamp": "2025-12-25T03:55:55.975302+00:00", "meta": {"OBJECT_NAME": "GALAXY 36 (G-36)", "OBJECT_ID": "2022-170B", "EPOCH": "2025-12-24T12:40:35.997888", "MEAN_MOTION": 1.0027244, "ECCENTRICITY": 3.31e-05, "INCLINATION": 0.0128, "RA_OF_ASC_NODE": 68.6149, "ARG_OF_PERICENTER": 274.9941, "MEAN_ANOMALY": 210.8483, "EPHEMERIS_TYPE": 0, "CLASSIFICATION_TYPE": "U", "NORAD_CAT_ID": 54742, "ELEMENT_SET_NO": 999, "REV_AT_EPOCH": 1102, "BSTAR": 0, "MEAN_MOTION_DOT": -1.64e-06, "MEAN_MOTION_DDOT": 0}, "tle": {"line1": "1 54742U 22170B   25358.52819442 -.00000164  00000+0  00000+0 0  9992", "line2": "2 54742   0.0128  68.6149 0000331 274.9941 210.8483  1.00272440 11022"}}, "geometry": {"type": "Point", "coordinates": [63.9156970666316, 0.00909145951380474]}}, {"type": "Feature", "properties": {"norad_id": 57493, "name": "GALAXY 37 (G-37)", "group": "intelsat", "lat": 0.008474302012034961, "lon": 25.91843334343655, "alt_km": 35788.90978247073, "timestamp": "2025-12-25T03:55:55.975314+00:00", "meta": {"OBJECT_NAME": "GALAXY 37 (G-37)", "OBJECT_ID": "2023-112A", "EPOCH": "2025-12-24T17:37:52.532256", "MEAN_MOTION": 1.00271631, "ECCENTRICITY": 0.0002076, "INCLINATION": 0.0166, "RA_OF_ASC_NODE": 13.7195, "ARG_OF_PERICENTER": 263.5118, "MEAN_ANOMALY": 313.7338, "EPHEMERIS_TYPE": 0, "CLASSIFICATION_TYPE": "U", "NORAD_CAT_ID": 57493, "ELEMENT_SET_NO": 999, "REV_AT_EPOCH": 879, "BSTAR": 0, "MEAN_MOTION_DOT": 6.9e-07, "MEAN_MOTION_DDOT": 0}, "tle": {"line1": "1 57493U 23112A   25358.73463579  .00000069  00000+0  00000+0 0  9997", "line2": "2 57493   0.0166  13.7195 0002076 263.5118 313.7338  1.00271631  8793"}}, "geometry": {"type": "Point", "coordinates": [25.91843334343655, 0.008474302012034961]}}]}